#cP2017 10 15  0  0  0.00000000      96 ORBIT IGS14 HLM  IGS
## 1971      0.00000000   900.00000000 58041 0.0000000000000
+   32   G01G02G03G04G05G06G07G08G09G10G11G12G13G14G15G16G17
+        G18G19G20G21G22G23G24G25G26G27G28G29G30G31G32  0  0
+          0  0  0  0  0  0  0  0  0  0  0  0  0  0  0  0  0
+          0  0  0  0  0  0  0  0  0  0  0  0  0  0  0  0  0
+          0  0  0  0  0  0  0  0  0  0  0  0  0  0  0  0  0
++         2  2  2  0  2  2  2  2  2  2  2  2  2  2  2  2  2
++         2  2  2  2  2  2  2  2  2  2  2  2  2  2  2  0  0
++         0  0  0  0  0  0  0  0  0  0  0  0  0  0  0  0  0
++         0  0  0  0  0  0  0  0  0  0  0  0  0  0  0  0  0
++         0  0  0  0  0  0  0  0  0  0  0  0  0  0  0  0  0
%c G  cc GPS ccc cccc cccc cccc cccc ccccc ccccc ccccc ccccc
%c cc cc ccc ccc cccc cccc cccc cccc ccccc ccccc ccccc ccccc
%f  1.2500000  1.025000000  0.00000000000  0.000000000000000
%f  0.0000000  0.000000000  0.00000000000  0.000000000000000
%i    0    0    0    0      0      0      0      0         0
%i    0    0    0    0      0      0      0      0         0
/* RAPID ORBIT COMBINATION FROM WEIGHTED AVERAGE OF:        
/* cod emr esa gfz jpl ngs sio usn whu                      
/* REFERENCED TO IGS TIME (IGST) AND TO WEIGHTED MEAN POLE: 
/* PCV:IGS14_1967 OL/AL:FES2004  NONE     Y  ORB:CMB CLK:CMB
*  2017 10 15 12 45  0.00000000
PG01  18058.444368   6175.615498  18452.514409     -4.628691  7  4  3  85       
PG02 -14504.033465 -22438.350319   -124.335423    305.811912  6  2  4 116       
PG03  18267.174046  -5822.066919  18344.255024    -55.652128  6  6  4  98       
PG04  10664.137950  13535.639616 -20519.056639 999999.999999
PG05  -8911.402052 -14344.977239 -20550.425731    -25.956938  8  5  3  97       
PG06  -4894.106423 -23674.718776  11007.543430    404.555259  5  3  4 108       
PG07  11825.881051  -9691.746492 -21483.953517    292.926317  9  3  3 104       
PG08  24130.231520   6224.344662  -9289.098431    -77.084780  2  4  6  77       
PG09  22272.104125  -8498.884261 -11752.440529    458.150255  6  5  3  83       
PG10  -9816.988482  24071.456573   5114.417973     89.221201  6  3  4  51       
PG11  23065.054175   7011.591245  10453.583705   -721.386179  8  4  4  78       
PG12 -16838.379725   1160.120595  20290.160981    369.022372  7  4  5  77       
PG13 -18806.057839 -12201.516015 -14338.195990    -92.791200  5  6  5  77       
PG14   2553.094505  15429.448956  21764.516310    -86.262337  4  2  6  98       
PG15 -25609.683205  -3483.684011  -7122.670863   -356.630833  5  7  5  97       
PG16   7128.863467  14275.960485 -21282.480785     36.893898  6  2  3  95       
PG17   7904.759749 -13979.984860  21495.229431   -150.840434  3     4  84       
PG18 -15012.037718  21114.166383  -4807.370114    631.374059  9  4  5  68       
PG19   -906.482669 -14792.296775  21747.137195   -481.063332  5  3  4  92       
PG20 -17370.869358   1662.561554 -20170.507587    489.776845  7  5  6  90       
PG21  -8762.919654  13709.917879 -20195.252011   -470.962814  4  5  3  96       
PG22  16398.253587   2735.005879  20957.325017   -155.650157  9  6  2  99       
PG23  26676.792443  -1465.675755  -1782.797081   -218.121192 10  5  5  77       
PG24 -19189.015825  -8389.652865  16395.050973    -40.922155  8  5  3 108       
PG25 -18331.547040  13822.450968  13009.880700   -473.061756  4  4  4  70       
PG26     14.819432  21733.876840 -15200.585638   -395.968723  6  2  5  61       
PG27  15127.650645  12301.068432 -18197.039854    337.335781  4  6  6  78       
PG28  13496.218577 -22749.777694   3058.888226    654.233664  8  3  3  84       
PG29 -24908.564411   3983.490703  -8301.960893    550.813782  8  6  7  94       
PG30   4336.276680 -19481.284512 -17443.255770    134.559843  6  5  3 112       
PG31   6142.320519  24189.514175   8539.854289    168.701550  5  3  6 106       
PG32  -4507.371520  15072.349593  21417.549262   -513.340711  6  4  4  73       
*  2017 10 15 13  0  0.00000000
PG01  19004.939827   7974.103999  16771.502885     -4.629896  7  4  3  60       
PG02 -14232.209234 -22516.821999   2682.361500    305.803552  4  1  4 112       
PG03  17339.110764  -3842.563893  19717.725617    -55.647678  6  6  4  89       
PG04   8339.523484  13874.058547 -21312.370757 999999.999999
PG05  -7759.811134 -16317.955588 -19495.492910    -25.955819  8  6  4 100       
PG06  -3994.600343 -22593.917028  13389.088009    404.557395  5  4  4 101       
PG07  13125.830272  -7542.525802 -21628.921113    292.921867 10  4  3  95       
PG08  22929.929375   6471.933853 -11797.065358    -77.086896     4  5  94       
PG09  23480.676865  -8306.920541  -9269.916123    458.155207  6  5  3  80       
PG10 -10248.369042  24319.844573   2293.476927     89.229057  6  4  3  77       
PG11  23772.487694   7990.329508   8002.424332   -721.387911  8  4  4  84       
PG12 -15626.358766   -922.793866  21258.257473    369.021005  7  4  4  98       
PG13 -17059.507037 -12210.266098 -16387.070046    -92.791726  5  6  4  69       
PG14    114.098255  15323.731847  21975.830046    -86.263056  4  2  5  92       
PG15 -24711.923681  -3865.419017  -9668.920176   -356.631035  5  6  5 107       
PG16   5786.662708  16208.368242 -20239.915296     36.893447  5  3  3  72       
PG17  10230.039631 -13869.143057  20535.187050   -150.838297  3  1  4  91       
PG18 -15002.809466  20256.251430  -7481.008927    631.374080  9  5  5  77       
PG19   1638.795160 -14635.466729  21828.989337   -481.061473  5  2  4  83       
PG20 -16559.957704   -525.672538 -20908.655131    489.777856  5  5  6  94       
PG21 -10234.402931  11667.358439 -20763.535708   -470.959876  6  6  2 101       
PG22  15411.531613   4903.706273  21309.002149   -155.661624  9  6  2 102       
PG23  26758.269867  -1199.700829   1014.709865   -218.121335 10  5  5  59       
PG24 -20007.861193  -9975.916174  14444.613324    -40.923035  7  4  3 108       
PG25 -17702.106533  12293.041812  15222.979083   -473.067464  4  5  3  93       
PG26   -916.997814  23074.884197 -13034.626116   -395.957857  6  3  5  53       
PG27  12987.842627  12467.722886 -19662.279387    337.339611  4  7  5  81       
PG28  13705.326444 -22749.046164    157.988431    654.236135  9  3  3  83       
PG29 -25692.472381   3775.638684  -5549.414767    550.809362  9  6  7  68       
PG30   5476.579568 -17718.348937 -18950.019389    134.557703  6  5  3 104       
PG31   5370.510906  23332.212102  11116.237982    168.699152  5  3  5 102       
PG32  -6916.992950  15094.717093  20742.526760   -513.344680  6  4  5  80       
*  2017 10 15 13 15  0.00000000
PG01  19927.743257   9546.849006  14802.234713     -4.631145  6  5  4  54       
PG02 -13777.011256 -22361.062973   5444.022395    305.794996  3  1  4 114       
PG03  16457.417415  -1694.271764  20751.006330    -55.643228  6  6  4  88       
PG04   5963.735218  14347.440912 -21747.207066 999999.999999
PG05  -6763.042457 -18221.849360 -18105.891384    -25.954608  7  5  4  96       
PG06  -2890.884072 -21352.882796  15540.339891    404.559505  5  4  4  99       
PG07  14529.419962  -5471.102650 -21394.955132    292.917317 10  5  3 105       
PG08  21472.875746   6810.818669 -14102.592910    -77.088616     5  5  78       
PG09  24409.406666  -8148.277486  -6628.131623    458.160131  7  5  2  87       
PG10 -10530.987822  24297.376011   -567.247949     89.236871  6  4  4  78       
PG11  24277.875808   8782.367498   5409.778186   -721.389866  8  4  4  65       
PG12 -14490.559788  -3147.804471  21853.882379    369.019655  6  3  4  88       
PG13 -15101.268803 -12306.082799 -18155.855232    -92.792113  6  6  4  17       
PG14  -2331.681404  15347.748454  21818.684911    -86.263867  6  3  5  71       
PG15 -23562.558262  -4333.605573 -12053.471079   -356.630870  5  6  4 110       
PG16   4620.858596  18096.316143 -18849.389525     36.893526  5  2  3  83       
PG17  12434.258444 -13883.296242  19231.504363   -150.836043  4  3  5  92       
PG18 -14922.722176  19119.893133 -10021.901313    631.375124  9  6  5  81       
PG19   4173.711919 -14616.768383  21525.432584   -481.059449  4  2  4  88       
PG20 -15832.569459  -2808.335760 -21291.733652    489.778912  5  5  6 106       
PG21 -11826.465191   9660.190753 -20947.624913   -470.957103  7  7  2 104       
PG22  14520.375623   7134.234815  21301.800704   -155.673285  8  5  2 109       
PG23  26542.728192   -909.946526   3795.246076   -218.121617 10  5  5  56       
PG24 -20763.550467 -11330.840255  12247.169647    -40.924162  7  4  3 114       
PG25 -17055.017719  10516.599207  17168.893531   -473.073189  4  5  4  86       
PG26  -1673.052941  24226.586159 -10643.269979   -395.946858  6  3  5  72       
PG27  10713.184387  12765.732040 -20792.933901    337.343472  4  7  5  57       
PG28  13755.456920 -22471.159718  -2745.564865    654.239542  9  4  2  87       
PG29 -26168.980400   3601.769269  -2701.297052    550.805263  9  7  6  63       
PG30   6781.937722 -15885.539314 -20129.026227    134.555636  6  5  3 121       
PG31   4402.031449  22280.130318  13497.764293    168.697103  4  3  4  92       
PG32  -9226.808757  15232.428478  19710.969344   -513.348690  7  4  5  63       
EOF
